CCSDS_OMM_VERS,COMMENT,CREATION_DATE,ORIGINATOR,OBJECT_NAME,OBJECT_ID,CENTER_NAME,REF_FRAME,TIME_SYSTEM,MEAN_ELEMENT_THEORY,EPOCH,MEAN_MOTION,ECCENTRICITY,INCLINATION,RA_OF_ASC_NODE,ARG_OF_PERICENTER,MEAN_ANOMALY,EPHEMERIS_TYPE,CLASSIFICATION_TYPE,NORAD_CAT_ID,ELEMENT_SET_NO,REV_AT_EPOCH,BSTAR,MEAN_MOTION_DOT,MEAN_MOTION_DDOT,SEMIMAJOR_AXIS,PERIOD,APOAPSIS,PERIAPSIS,OBJECT_TYPE,RCS_SIZE,COUNTRY_CODE,LAUNCH_DATE,SITE,DECAY_DATE,FILE,GP_ID,TLE_LINE0,TLE_LINE1,TLE_LINE2
"2.0","GENERATED VIA SPACE-TRACK.ORG API","2020-12-02T18:56:12","18 SPCS","SL-18 DEB","1993-014BJ","EARTH","TEME","UTC","SGP4","2020-12-02T03:05:52.640736","14.82125239","0.00718220","75.7393","258.5489","159.2200","201.1934","0","U","35359","999","70777","0.00108830000000","0.00009049","0.0000000000000","7000.760","97.157","672.906","572.344","DEBRIS","SMALL","CIS","1993-03-25","PKMTR","","2896015","166736051","0 SL-18 DEB","1 35359U 93014BJ  20337.12908149  .00009049  00000-0  10883-2 0  9995","2 35359  75.7393 258.5489 0071822 159.2200 201.1934 14.82125239707776"
"2.0","GENERATED VIA SPACE-TRACK.ORG API","2020-12-02T19:24:44","18 SPCS","IRIDIUM 176","2019-002B","EARTH","TEME","UTC","SGP4","2020-12-01T21:30:40.617216","14.72254829","0.00020340","86.6092","119.1940","91.7947","268.3503","0","U","43923","999","10156","0.00004604900000","0.00000315","0.0000000000000","7032.015","97.809","655.311","652.450","PAYLOAD","LARGE","US","2019-01-11","AFWTR","","2896233","166759935","0 IRIDIUM 176","1 43923U 19002B   20336.89630344  .00000315  00000-0  46049-4 0  9990","2 43923  86.6092 119.1940 0002034  91.7947 268.3503 14.72254829101569"
"2.0","GENERATED VIA SPACE-TRACK.ORG API","2020-12-02T04:55:40","18 SPCS","IRIDIUM 176","2019-002B","EARTH","TEME","UTC","SGP4","2020-12-01T16:37:03.410976","14.72254727","0.00020400","86.6092","119.2792","91.6299","268.5152","0","U","43923","999","10153","0.00004699800000","0.00000321","0.0000000000000","7032.016","97.809","655.315","652.446","PAYLOAD","LARGE","US","2019-01-11","AFWTR","","2895815","166728503","0 IRIDIUM 176","1 43923U 19002B   20336.69240059  .00000321  00000-0  46998-4 0  9998","2 43923  86.6092 119.2792 0002040  91.6299 268.5152 14.72254727101537"
"2.0","GENERATED VIA SPACE-TRACK.ORG API","2020-12-01T19:37:25","18 SPCS","SL-18 DEB","1993-014BJ","EARTH","TEME","UTC","SGP4","2020-12-01T12:31:02.215488","14.82114111","0.00718390","75.7394","259.6242","160.8091","199.5829","0","U","35359","999","70702","0.00096585000000","0.00008026","0.0000000000000","7000.795","97.158","672.953","572.367","DEBRIS","SMALL","CIS","1993-03-25","PKMTR","","2895669","166698376","0 SL-18 DEB","1 35359U 93014BJ  20336.52155342 +.00008026 +00000-0 +96585-3 0  9995","2 35359 075.7394 259.6242 0071839 160.8091 199.5829 14.82114111707028"
"2.0","GENERATED VIA SPACE-TRACK.ORG API","2020-12-01T19:37:25","18 SPCS","IRIDIUM 176","2019-002B","EARTH","TEME","UTC","SGP4","2020-12-01T11:43:26.204736","14.72254579","0.00020390","86.6091","119.3645","91.4939","268.6512","0","U","43923","999","10150","0.00004563500000","0.00000312","0.0000000000000","7032.016","97.809","655.315","652.447","PAYLOAD","LARGE","US","2019-01-11","AFWTR","","2895669","166705088","0 IRIDIUM 176","1 43923U 19002B   20336.48849774 +.00000312 +00000-0 +45635-4 0  9991","2 43923 086.6091 119.3645 0002039 091.4939 268.6512 14.72254579101504"
"2.0","GENERATED VIA SPACE-TRACK.ORG API","2020-12-01T06:26:10","18 SPCS","IRIDIUM 176","2019-002B","EARTH","TEME","UTC","SGP4","2020-12-01T03:34:04.192896","14.72254291","0.00020400","86.6091","119.5065","91.3783","268.7668","0","U","43923","999","10145","0.00004329700000","0.00000298","0.0000000000000","7032.017","97.809","655.317","652.448","PAYLOAD","LARGE","US","2019-01-11","AFWTR","","2895241","166676805","0 IRIDIUM 176","1 43923U 19002B   20336.14865964  .00000298  00000-0  43297-4 0  9998","2 43923  86.6091 119.5065 0002040  91.3783 268.7668 14.72254291101458"
"2.0","GENERATED VIA SPACE-TRACK.ORG API","2020-11-30T22:36:10","18 SPCS","SL-18 DEB","1993-014BJ","EARTH","TEME","UTC","SGP4","2020-11-30T18:41:46.755168","14.82103286","0.00718840","75.7393","260.9384","162.7543","197.6111","0","U","35359","999","70757","0.00104610000000","0.00008693","0.0000000000000","7000.829","97.159","673.019","572.370","DEBRIS","SMALL","CIS","1993-03-25","PKMTR","","2895141","166654282","0 SL-18 DEB","1 35359U 93014BJ  20335.77901337  .00008693  00000-0  10461-2 0  9992","2 35359  75.7393 260.9384 0071884 162.7543 197.6111 14.82103286707576"
"2.0","GENERATED VIA SPACE-TRACK.ORG API","2020-12-01T06:22:07","18 SPCS","IRIDIUM 176","2019-002B","EARTH","TEME","UTC","SGP4","2020-11-30T16:08:57.365088","14.72254081","0.00020430","86.6091","119.7054","91.1124","269.0327","0","U","43923","999","10138","0.00004553400000","0.00000312","0.0000000000000","7032.018","97.809","655.320","652.446","PAYLOAD","LARGE","US","2019-01-11","AFWTR","","2895233","166672727","0 IRIDIUM 176","1 43923U 19002B   20335.67288617 +.00000312 +00000-0 +45534-4 0  9992","2 43923 086.6091 119.7054 0002043 091.1124 269.0327 14.72254081101383"
"2.0","GENERATED VIA SPACE-TRACK.ORG API","2020-11-30T19:32:05","18 SPCS","IRIDIUM 176","2019-002B","EARTH","TEME","UTC","SGP4","2020-11-30T11:15:20.160576","14.72253824","0.00020450","86.6090","119.7907","91.0806","269.0645","0","U","43923","999","10135","0.00004191200000","0.00000289","0.0000000000000","7032.019","97.809","655.322","652.446","PAYLOAD","LARGE","US","2019-01-11","AFWTR","","2894994","166647469","0 IRIDIUM 176","1 43923U 19002B   20335.46898334 +.00000289 +00000-0 +41912-4 0  9991","2 43923 086.6090 119.7907 0002045 091.0806 269.0645 14.72253824101351"
"2.0","GENERATED VIA SPACE-TRACK.ORG API","2020-11-30T06:26:10","18 SPCS","IRIDIUM 176","2019-002B","EARTH","TEME","UTC","SGP4","2020-11-30T03:05:58.130592","14.72253591","0.00020470","86.6089","119.9327","90.9569","269.1883","0","U","43923","999","10130","0.00004041700000","0.00000280","0.0000000000000","7032.019","97.809","655.324","652.445","PAYLOAD","LARGE","US","2019-01-11","AFWTR","","2894199","166613723","0 IRIDIUM 176","1 43923U 19002B   20335.12914503  .00000280  00000-0  40417-4 0  9991","2 43923  86.6089 119.9327 0002047  90.9569 269.1883 14.72253591101304"
"2.0","GENERATED VIA SPACE-TRACK.ORG API","2020-11-30T03:19:25","18 SPCS","IRIDIUM 176","2019-002B","EARTH","TEME","UTC","SGP4","2020-11-29T20:34:28.506432","14.72253469","0.00020430","86.6089","120.0464","90.8333","269.3118","0","U","43923","999","10126","0.00004103200000","0.00000283","0.0000000000000","7032.020","97.809","655.321","652.448","PAYLOAD","LARGE","US","2019-01-11","AFWTR","","2894146","166608395","0 IRIDIUM 176","1 43923U 19002B   20334.85727438 +.00000283 +00000-0 +41032-4 0  9996","2 43923 086.6089 120.0464 0002043 090.8333 269.3118 14.72253469101265"
"2.0","GENERATED VIA SPACE-TRACK.ORG API","2020-11-29T18:59:51","18 SPCS","SL-18 DEB","1993-014BJ","EARTH","TEME","UTC","SGP4","2020-11-29T11:54:51.604704","14.82078408","0.00719500","75.7391","263.2085","166.0748","194.2446","0","U","35359","999","70672","0.00096583000000","0.00008019","0.0000000000000","7000.908","97.160","673.144","572.401","DEBRIS","SMALL","CIS","1993-03-25","PKMTR","","2893785","166574119","0 SL-18 DEB","1 35359U 93014BJ  20334.49643061 +.00008019 +00000-0 +96583-3 0  9999","2 35359 075.7391 263.2085 0071950 166.0748 194.2446 14.82078408706723"
"2.0","GENERATED VIA SPACE-TRACK.ORG API","2020-11-29T18:59:51","18 SPCS","IRIDIUM 176","2019-002B","EARTH","TEME","UTC","SGP4","2020-11-29T10:47:14.068032","14.72253231","0.00020460","86.6089","120.2169","90.6196","269.5256","0","U","43923","999","10120","0.00004071400000","0.00000281","0.0000000000000","7032.021","97.809","655.324","652.447","PAYLOAD","LARGE","US","2019-01-11","AFWTR","","2893785","166579612","0 IRIDIUM 176","1 43923U 19002B   20334.44946838 +.00000281 +00000-0 +40714-4 0  9992","2 43923 086.6089 120.2169 0002046 090.6196 269.5256 14.72253231101203"
"2.0","GENERATED VIA SPACE-TRACK.ORG API","2020-11-29T06:26:09","18 SPCS","IRIDIUM 176","2019-002B","EARTH","TEME","UTC","SGP4","2020-11-28T21:44:14.804160","14.72252897","0.00020450","86.6088","120.4442","90.3807","269.7645","0","U","43923","999","10112","0.00003928900000","0.00000272","0.0000000000000","7032.022","97.809","655.325","652.449","PAYLOAD","LARGE","US","2019-01-11","AFWTR","","2892976","166542385","0 IRIDIUM 176","1 43923U 19002B   20333.90572690  .00000272  00000-0  39289-4 0  9998","2 43923  86.6088 120.4442 0002045  90.3807 269.7645 14.72252897101125"
"2.0","GENERATED VIA SPACE-TRACK.ORG API","2020-11-28T20:10:50","18 SPCS","SL-18 DEB","1993-014BJ","EARTH","TEME","UTC","SGP4","2020-11-28T13:13:57.179136","14.82062791","0.00720070","75.7389","264.8812","168.5443","191.7405","0","U","35359","999","70658","0.00099746000000","0.00008280","0.0000000000000","7000.957","97.161","673.234","572.410","DEBRIS","SMALL","CIS","1993-03-25","PKMTR","","2892611","166523952","0 SL-18 DEB","1 35359U 93014BJ  20333.55135624 +.00008280 +00000-0 +99746-3 0  9990","2 35359 075.7389 264.8812 0072007 168.5443 191.7405 14.82062791706587"
"2.0","GENERATED VIA SPACE-TRACK.ORG API","2020-11-28T22:56:09","18 SPCS","SL-18 DEB","1993-014BJ","EARTH","TEME","UTC","SGP4","2020-11-28T13:13:57.179136","14.82062791","0.00720070","75.7389","264.8812","168.5443","191.7405","0","U","35359","999","70724","0.00099746000000","0.00008280","0.0000000000000","7000.957","97.161","673.234","572.410","DEBRIS","SMALL","CIS","1993-03-25","PKMTR","","2892848","166539981","0 SL-18 DEB","1 35359U 93014BJ  20333.55135624  .00008280  00000-0  99746-3 0  9990","2 35359  75.7389 264.8812 0072007 168.5443 191.7405 14.82062791707241"
